{
  "type": "FeatureCollection",
  "features": [
    {
      "type": "Feature",
      "properties": {
        "norad_id": 38857,
        "name": "GSAT0103 (GALILEO-FM3)",
        "group": "gnss",
        "lat": 54.84116851076742,
        "lon": -178.11842389240866,
        "alt_km": 23224.28823506862,
        "timestamp": "2025-12-20T16:47:36.528497+00:00",
        "meta_object_name": "GSAT0103 (GALILEO-FM3)",
        "meta_object_id": "2012-055A",
        "meta_epoch": "2025-12-18T05:17:11.481792",
        "meta_mean_motion": 1.70473412,
        "meta_eccentricity": 0.00028558,
        "meta_inclination": 55.6954,
        "meta_ra_of_asc_node": 106.5161,
        "meta_arg_of_pericenter": 269.0808,
        "meta_mean_anomaly": 90.8455,
        "meta_ephemeris_type": 0,
        "meta_classification_type": "U",
        "meta_norad_cat_id": 38857,
        "meta_element_set_no": 999,
        "meta_rev_at_epoch": 8192,
        "meta_bstar": 0,
        "meta_mean_motion_dot": -7e-08,
        "meta_mean_motion_ddot": 0,
        "tle_line1": "1 38857U 12055A   25352.22027178 -.00000007  00000+0  00000+0 0  9996",
        "tle_line2": "2 38857  55.6954 106.5161 0002855 269.0808  90.8455  1.70473412 81920"
      },
      "geometry": {
        "type": "Point",
        "coordinates": [
          -178.11842389240866,
          54.84116851076742
        ]
      }
    },
    {
      "type": "Feature",
      "properties": {
        "norad_id": 38953,
        "name": "BEIDOU-2 G6 (C02)",
        "group": "gnss",
        "lat": -0.6641027686646097,
        "lon": 65.47277362870372,
        "alt_km": 35768.432880169785,
        "timestamp": "2025-12-20T16:47:36.528512+00:00",
        "meta_object_name": "BEIDOU-2 G6 (C02)",
        "meta_object_id": "2012-059A",
        "meta_epoch": "2025-12-20T08:29:35.831616",
        "meta_mean_motion": 1.0026897,
        "meta_eccentricity": 0.0008257,
        "meta_inclination": 3.9675,
        "meta_ra_of_asc_node": 75.4322,
        "meta_arg_of_pericenter": 292.2593,
        "meta_mean_anomaly": 292.8441,
        "meta_ephemeris_type": 0,
        "meta_classification_type": "U",
        "meta_norad_cat_id": 38953,
        "meta_element_set_no": 999,
        "meta_rev_at_epoch": 4811,
        "meta_bstar": 0,
        "meta_mean_motion_dot": -1.54e-06,
        "meta_mean_motion_ddot": 0,
        "tle_line1": "1 38953U 12059A   25354.35388694 -.00000154  00000+0  00000+0 0  9999",
        "tle_line2": "2 38953   3.9675  75.4322 0008257 292.2593 292.8441  1.00268970 48114"
      },
      "geometry": {
        "type": "Point",
        "coordinates": [
          65.47277362870372,
          -0.6641027686646097
        ]
      }
    },
    {
      "type": "Feature",
      "properties": {
        "norad_id": 38977,
        "name": "LUCH 5B (SDCM/PRN 125)",
        "group": "gnss",
        "lat": -10.095938432448351,
        "lon": -34.766093944645526,
        "alt_km": 35781.37756247235,
        "timestamp": "2025-12-20T16:47:36.528526+00:00",
        "meta_object_name": "LUCH 5B (SDCM/PRN 125)",
        "meta_object_id": "2012-061A",
        "meta_epoch": "2025-12-20T10:31:38.598816",
        "meta_mean_motion": 1.00272375,
        "meta_eccentricity": 0.0006597,
        "meta_inclination": 10.0969,
        "meta_ra_of_asc_node": 51.6321,
        "meta_arg_of_pericenter": 195.4287,
        "meta_mean_anomaly": 343.7948,
        "meta_ephemeris_type": 0,
        "meta_classification_type": "U",
        "meta_norad_cat_id": 38977,
        "meta_element_set_no": 999,
        "meta_rev_at_epoch": 4781,
        "meta_bstar": 0,
        "meta_mean_motion_dot": -1.21e-06,
        "meta_mean_motion_ddot": 0,
        "tle_line1": "1 38977U 12061A   25354.43864119 -.00000121  00000+0  00000+0 0  9992",
        "tle_line2": "2 38977  10.0969  51.6321 0006597 195.4287 343.7948  1.00272375 47817"
      },
      "geometry": {
        "type": "Point",
        "coordinates": [
          -34.766093944645526,
          -10.095938432448351
        ]
      }
    },
    {
      "type": "Feature",
      "properties": {
        "norad_id": 39155,
        "name": "COSMOS 2485 (747)",
        "group": "gnss",
        "lat": 64.31224312033636,
        "lon": 152.23248459610417,
        "alt_km": 19176.226921760965,
        "timestamp": "2025-12-20T16:47:36.528538+00:00",
        "meta_object_name": "COSMOS 2485 (747)",
        "meta_object_id": "2013-019A",
        "meta_epoch": "2025-12-20T02:56:15.294336",
        "meta_mean_motion": 2.13103192,
        "meta_eccentricity": 0.00247921,
        "meta_inclination": 65.3175,
        "meta_ra_of_asc_node": 79.6189,
        "meta_arg_of_pericenter": 230.0872,
        "meta_mean_anomaly": 129.7256,
        "meta_ephemeris_type": 0,
        "meta_classification_type": "U",
        "meta_norad_cat_id": 39155,
        "meta_element_set_no": 999,
        "meta_rev_at_epoch": 9846,
        "meta_bstar": 0,
        "meta_mean_motion_dot": -2e-07,
        "meta_mean_motion_ddot": 0,
        "tle_line1": "1 39155U 13019A   25354.12239924 -.00000020  00000+0  00000+0 0  9999",
        "tle_line2": "2 39155  65.3175  79.6189 0024792 230.0872 129.7256  2.13103192 98469"
      },
      "geometry": {
        "type": "Point",
        "coordinates": [
          152.23248459610417,
          64.31224312033636
        ]
      }
    },
    {
      "type": "Feature",
      "properties": {
        "norad_id": 39166,
        "name": "GPS BIIF-4  (PRN 27)",
        "group": "gnss",
        "lat": 4.389540762177995,
        "lon": -80.64712151670486,
        "alt_km": 19912.261204223647,
        "timestamp": "2025-12-20T16:47:36.528549+00:00",
        "meta_object_name": "GPS BIIF-4  (PRN 27)",
        "meta_object_id": "2013-023A",
        "meta_epoch": "2025-12-19T04:43:12.887616",
        "meta_mean_motion": 2.00564719,
        "meta_eccentricity": 0.0138305,
        "meta_inclination": 54.6464,
        "meta_ra_of_asc_node": 276.3057,
        "meta_arg_of_pericenter": 48.6894,
        "meta_mean_anomaly": 312.5202,
        "meta_ephemeris_type": 0,
        "meta_classification_type": "U",
        "meta_norad_cat_id": 39166,
        "meta_element_set_no": 999,
        "meta_rev_at_epoch": 9227,
        "meta_bstar": 0,
        "meta_mean_motion_dot": -2.9e-07,
        "meta_mean_motion_ddot": 0,
        "tle_line1": "1 39166U 13023A   25353.19667694 -.00000029  00000+0  00000+0 0  9990",
        "tle_line2": "2 39166  54.6464 276.3057 0138305  48.6894 312.5202  2.00564719 92274"
      },
      "geometry": {
        "type": "Point",
        "coordinates": [
          -80.64712151670486,
          4.389540762177995
        ]
      }
    },
    {
      "type": "Feature",
      "properties": {
        "norad_id": 39199,
        "name": "IRNSS-1A",
        "group": "gnss",
        "lat": -16.785757431415714,
        "lon": 41.297421881460245,
        "alt_km": 35838.30283287133,
        "timestamp": "2025-12-20T16:47:36.528563+00:00",
        "meta_object_name": "IRNSS-1A",
        "meta_object_id": "2013-034A",
        "meta_epoch": "2025-12-18T18:41:43.776960",
        "meta_mean_motion": 1.00272479,
        "meta_eccentricity": 0.0024472,
        "meta_inclination": 35.3183,
        "meta_ra_of_asc_node": 66.4661,
        "meta_arg_of_pericenter": 211.0525,
        "meta_mean_anomaly": 145.3931,
        "meta_ephemeris_type": 0,
        "meta_classification_type": "U",
        "meta_norad_cat_id": 39199,
        "meta_element_set_no": 999,
        "meta_rev_at_epoch": 4555,
        "meta_bstar": 0,
        "meta_mean_motion_dot": 6.5e-07,
        "meta_mean_motion_ddot": 0,
        "tle_line1": "1 39199U 13034A   25352.77897890  .00000065  00000+0  00000+0 0  9993",
        "tle_line2": "2 39199  35.3183  66.4661 0024472 211.0525 145.3931  1.00272479 45557"
      },
      "geometry": {
        "type": "Point",
        "coordinates": [
          41.297421881460245,
          -16.785757431415714
        ]
      }
    },
    {
      "type": "Feature",
      "properties": {
        "norad_id": 39533,
        "name": "GPS BIIF-5  (PRN 30)",
        "group": "gnss",
        "lat": 7.752550057620528,
        "lon": 162.34787346960957,
        "alt_km": 20351.292776273698,
        "timestamp": "2025-12-20T16:47:36.528574+00:00",
        "meta_object_name": "GPS BIIF-5  (PRN 30)",
        "meta_object_id": "2014-008A",
        "meta_epoch": "2025-12-20T04:30:10.868256",
        "meta_mean_motion": 2.00559606,
        "meta_eccentricity": 0.0079998,
        "meta_inclination": 53.6333,
        "meta_ra_of_asc_node": 156.6204,
        "meta_arg_of_pericenter": 226.3975,
        "meta_mean_anomaly": 132.9264,
        "meta_ephemeris_type": 0,
        "meta_classification_type": "U",
        "meta_norad_cat_id": 39533,
        "meta_element_set_no": 999,
        "meta_rev_at_epoch": 8609,
        "meta_bstar": 0,
        "meta_mean_motion_dot": 6.4e-07,
        "meta_mean_motion_ddot": 0,
        "tle_line1": "1 39533U 14008A   25354.18762579  .00000064  00000+0  00000+0 0  9998",
        "tle_line2": "2 39533  53.6333 156.6204 0079998 226.3975 132.9264  2.00559606 86091"
      },
      "geometry": {
        "type": "Point",
        "coordinates": [
          162.34787346960957,
          7.752550057620528
        ]
      }
    }
  ]
}